SatCatId,ObjectName,LaunchYear,OrbitalPeriod,LaunchMass,StatusCode,Inclination,Status,UcsData,OrbitClassEstimated,LaunchSiteCountry,Owner,UseType,Purpose,LaunchVehicleClass,TLE1,TLE2,MeanMotion,Eccentricity,OrbitClass
50806,STARLINK-3335,2022,95.44,260.0,+,53.22,Active,1,LEO,USA,USA,Commercial,Communications,Falcon,1 50806U 22001D   25158.71903086 -.00000022  00000+0  16680-4 0  9998,2 50806  53.2180 313.5124 0001328  88.5689 271.5455 15.08846382190304,15.08846382,0.0001328,LEO
50808,STARLINK-3355,2022,95.44,260.0,+,53.22,Active,1,LEO,USA,USA,Commercial,Communications,Falcon,1 50808U 22001F   25158.44669220  .00002944  00000+0  20290-3 0  9994,2 50808  53.2195 314.7367 0001434  96.3959 263.7197 15.08858065188998,15.08858065,0.0001434,LEO
50809,STARLINK-3232,2022,95.44,260.0,+,53.22,Active,1,LEO,USA,USA,Commercial,Communications,Falcon,1 50809U 22001G   25157.85422904 -.00000999  00000+0 -44649-4 0  9990,2 50809  53.2180 317.3942 0001406  95.3937 264.7215 15.08842284188904,15.08842284,0.0001406,LEO
50812,STARLINK-3338,2022,95.44,260.0,+,53.22,Active,1,LEO,USA,USA,Commercial,Communications,Falcon,1 50812U 22001K   25158.80736788 -.00000849  00000+0 -35243-4 0  9992,2 50812  53.2192 313.2192 0001234  97.9170 262.1963 15.08842355190295,15.08842355,0.0001234,LEO
50813,STARLINK-3349,2022,94.89,260.0,P,53.22,Active,1,LEO,USA,USA,Commercial,Communications,Falcon,1 50813U 22001L   25158.45812703  .00010844  00000+0  54738-3 0  9999,2 50813  53.2170 310.0779 0005729 170.8158 189.2943 15.17610608189062,15.17610608,0.0005729,LEO
50814,STARLINK-3324,2022,95.44,260.0,+,53.22,Active,1,LEO,USA,USA,Commercial,Communications,Falcon,1 50814U 22001M   25158.74387331 -.00000322  00000+0 -21021-5 0  9999,2 50814  53.2185 323.4001 0002178  94.7469 265.3772 15.08838139190170,15.08838139,0.0002178,LEO
50815,STARLINK-3234,2022,95.44,260.0,+,53.22,Active,1,LEO,USA,USA,Commercial,Communications,Falcon,1 50815U 22001N   25158.75491262 -.00001958  00000+0 -10499-3 0  9991,2 50815  53.2195 323.3510 0001434  87.9630 272.1526 15.08830682190172,15.08830682,0.0001434,LEO
50816,STARLINK-3342,2022,95.44,260.0,+,53.22,Active,1,LEO,USA,USA,Commercial,Communications,Falcon,1 50816U 22001P   25158.85792052  .00004177  00000+0  28017-3 0  9993,2 50816  53.2182 322.8893 0001190  84.7790 275.3338 15.08869699190196,15.08869699,0.000119,LEO
50817,STARLINK-3341,2022,95.44,260.0,+,53.22,Active,1,LEO,USA,USA,Commercial,Communications,Falcon,1 50817U 22001Q   25158.48627352  .00000745  00000+0  64909-4 0  9991,2 50817  53.2195 324.5550 0001267  95.3268 264.7869 15.08834284188867,15.08834284,0.0001267,LEO
50818,STARLINK-3336,2022,95.44,260.0,+,53.22,Active,1,LEO,USA,USA,Commercial,Communications,Falcon,1 50818U 22001R   25158.46787035 -.00000888  00000+0 -37709-4 0  9993,2 50818  53.2181 324.6421 0001250  89.7987 270.3148 15.08838224188858,15.08838224,0.000125,LEO
50819,STARLINK-3327,2022,95.44,260.0,+,53.22,Active,1,LEO,USA,USA,Commercial,Communications,Falcon,1 50819U 22001S   25158.87267299 -.00001207  00000+0 -57733-4 0  9999,2 50819  53.2184 322.8221 0001472  93.1629 266.9532 15.08844390190120,15.0884439,0.0001472,LEO
50820,STARLINK-3339,2022,95.44,260.0,+,53.22,Active,1,LEO,USA,USA,Commercial,Communications,Falcon,1 50820U 22001T   25158.72180816 -.00000641  00000+0 -22163-4 0  9994,2 50820  53.2186 323.5009 0001170  82.8524 277.2601 15.08844470190176,15.0884447,0.000117,LEO
50821,STARLINK-3346,2022,95.44,260.0,+,53.22,Active,1,LEO,USA,USA,Commercial,Communications,Falcon,1 50821U 22001U   25158.43106203 -.00000060  00000+0  14290-4 0  9997,2 50821  53.2200 324.6876 0001342  95.8886 264.2259 15.08843870188854,15.0884387,0.0001342,LEO
50822,STARLINK-3343,2022,95.44,260.0,+,53.22,Active,1,LEO,USA,USA,Commercial,Communications,Falcon,1 50822U 22001V   25158.71443377 -.00000071  00000+0  13644-4 0  9999,2 50822  53.2196 323.5333 0001447  86.0592 274.0566 15.08839284190146,15.08839284,0.0001447,LEO
50823,STARLINK-3334,2022,95.44,260.0,+,53.22,Active,1,LEO,USA,USA,Commercial,Communications,Falcon,1 50823U 22001W   25158.48259093 -.00001026  00000+0 -46406-4 0  9998,2 50823  53.2180 324.5714 0001274  96.4998 263.6139 15.08836033188862,15.08836033,0.0001274,LEO
50825,STARLINK-3332,2022,95.44,260.0,+,53.22,Active,1,LEO,USA,USA,Commercial,Communications,Falcon,1 50825U 22001Y   25158.45315221 -.00000626  00000+0 -21221-4 0  9996,2 50825  53.2195 324.7068 0001221  84.2142 275.8990 15.08846255188858,15.08846255,0.0001221,LEO
50827,STARLINK-3329,2022,95.44,260.0,+,53.22,Active,1,LEO,USA,USA,Commercial,Communications,Falcon,1 50827U 22001AA  25158.86162873 -.00000925  00000+0 -40038-4 0  9995,2 50827  53.2177 322.8724 0001344  92.7688 267.3458 15.08844021190186,15.08844021,0.0001344,LEO
50828,STARLINK-3290,2022,95.44,260.0,+,53.22,Active,1,LEO,USA,USA,Commercial,Communications,Falcon,1 50828U 22001AB  25157.85425525  .00001717  00000+0  12592-3 0  9991,2 50828  53.2181 327.2844 0001165  86.5546 273.5579 15.08836606188617,15.08836606,0.0001165,LEO
50829,STARLINK-3294,2022,95.44,260.0,+,53.22,Active,1,LEO,USA,USA,Commercial,Communications,Falcon,1 50829U 22001AC  25158.47154920 -.00000317  00000+0 -18193-5 0  9991,2 50829  53.2182 324.6222 0001444  96.4354 263.6802 15.08840609188850,15.08840609,0.0001444,LEO
50830,STARLINK-3278,2022,95.44,260.0,+,53.22,Active,1,LEO,USA,USA,Commercial,Communications,Falcon,1 50830U 22001AD  25158.48903018 -.00000215  00000+0  45593-5 0  9994,2 50830  53.2186 334.5455 0001342  91.9790 268.1356 15.08847788188720,15.08847788,0.0001342,LEO
50831,STARLINK-3299,2022,95.44,260.0,+,53.22,Active,1,LEO,USA,USA,Commercial,Communications,Falcon,1 50831U 22001AE  25158.83220148  .00001190  00000+0  92856-4 0  9995,2 50831  53.2195 323.0704 0001519  93.5579 266.5587 15.08829561190180,15.08829561,0.0001519,LEO
50832,STARLINK-3328,2022,95.44,260.0,+,53.22,Active,1,LEO,USA,USA,Commercial,Communications,Falcon,1 50832U 22001AF  25158.88743460 -.00000638  00000+0 -22020-4 0  9992,2 50832  53.2189 332.8048 0001476  93.7679 266.3482 15.08840741190037,15.08840741,0.0001476,LEO
50834,STARLINK-3331,2022,95.44,260.0,+,53.22,Active,1,LEO,USA,USA,Commercial,Communications,Falcon,1 50834U 22001AH  25158.73927210 -.00000589  00000+0 -18916-4 0  9999,2 50834  53.2188 333.4275 0001109  85.5728 274.5391 15.08844668190036,15.08844668,0.0001109,LEO
50835,STARLINK-3310,2022,95.44,260.0,+,53.22,Active,1,LEO,USA,USA,Commercial,Communications,Falcon,1 50835U 22001AJ  25158.47800710  .00001296  00000+0  99528-4 0  9998,2 50835  53.2181 334.7090 0001224  93.8910 266.2222 15.08837769188719,15.08837769,0.0001224,LEO
50836,STARLINK-3330,2022,95.44,260.0,+,53.22,Active,1,LEO,USA,USA,Commercial,Communications,Falcon,1 50836U 22001AK  25158.45684416 -.00000837  00000+0 -34520-4 0  9993,2 50836  53.2188 334.4666 0001363  98.0158 262.0989 15.08842835188611,15.08842835,0.0001363,LEO
50837,STARLINK-3318,2022,95.44,260.0,+,53.22,Active,1,LEO,USA,USA,Commercial,Communications,Falcon,1 50837U 22001AL  25158.83586825  .00000187  00000+0  29847-4 0  9993,2 50837  53.2197 322.9867 0001424  90.4134 269.7022 15.08843451190110,15.08843451,0.0001424,LEO
50838,STARLINK-3322,2022,93.03,260.0,P,53.19,Active,1,LEO,USA,USA,Commercial,Communications,Falcon,1 50838U 22001AM  25158.54051953  .00078696  00000+0  14754-2 0  9990,2 50838  53.1927 288.7865 0005171 163.1767 196.9415 15.47976678190579,15.47976678,0.0005171,LEO
50839,STARLINK-3320,2022,95.44,260.0,+,53.22,Active,1,LEO,USA,USA,Commercial,Communications,Falcon,1 50839U 22001AN  25157.79351196  .00001026  00000+0  82532-4 0  9993,2 50839  53.2190 337.6658 0001378  97.4490 262.6659 15.08840638188609,15.08840638,0.0001378,LEO
50840,STARLINK-3295,2022,95.44,260.0,+,53.22,Active,1,LEO,USA,USA,Commercial,Communications,Falcon,1 50840U 22001AP  25158.51847272 -.00000143  00000+0  91217-5 0  9992,2 50840  53.2189 334.4134 0001402  96.1836 263.9316 15.08836954188713,15.08836954,0.0001402,LEO
50841,STARLINK-3300,2022,95.44,260.0,+,53.22,Active,1,LEO,USA,USA,Commercial,Communications,Falcon,1 50841U 22001AQ  25158.46327230  .00002334  00000+0  16469-3 0  9991,2 50841  53.2187 334.6589 0001387  93.7993 266.3158 15.08833056188718,15.08833056,0.0001387,LEO
50842,STARLINK-3302,2022,95.44,260.0,+,53.22,Active,1,LEO,USA,USA,Commercial,Communications,Falcon,1 50842U 22001AR  25158.51479185  .00000158  00000+0  28032-4 0  9997,2 50842  53.2194 334.4268 0001376  96.2506 263.8643 15.08839244188711,15.08839244,0.0001376,LEO
50843,STARLINK-3325,2022,95.44,260.0,+,53.22,Active,1,LEO,USA,USA,Commercial,Communications,Falcon,1 50843U 22001AS  25158.60311004 -.00000058  00000+0  14425-4 0  9994,2 50843  53.2183 334.0320 0001244  89.2569 270.8566 15.08843624188731,15.08843624,0.0001244,LEO
50844,STARLINK-3326,2022,95.44,260.0,+,53.22,Active,1,LEO,USA,USA,Commercial,Communications,Falcon,1 50844U 22001AT  25158.76870844 -.00001035  00000+0 -46930-4 0  9997,2 50844  53.2182 333.2883 0001404  93.1404 266.9749 15.08842137190040,15.08842137,0.0001404,LEO
50845,STARLINK-3230,2022,95.44,260.0,+,53.22,Active,1,LEO,USA,USA,Commercial,Communications,Falcon,1 50845U 22001AU  25158.48167048 -.00000374  00000+0 -54386-5 0  9992,2 50845  53.2184 334.5796 0001261  84.3991 275.7145 15.08849421188727,15.08849421,0.0001261,LEO
50846,STARLINK-3308,2022,95.44,260.0,+,53.22,Active,1,LEO,USA,USA,Commercial,Communications,Falcon,1 50846U 22001AV  25158.51111263 -.00000427  00000+0 -87413-5 0  9991,2 50846  53.2163 334.5522 0001396  91.7819 268.3333 15.08845445188721,15.08845445,0.0001396,LEO
50848,STARLINK-3315,2022,95.44,260.0,+,53.22,Active,1,LEO,USA,USA,Commercial,Communications,Falcon,1 50848U 22001AX  25158.89383188  .00000126  00000+0  26016-4 0  9996,2 50848  53.2195 332.7264 0001474  95.4025 264.7136 15.08839157190095,15.08839157,0.0001474,LEO
